GLOBALSTAR M075         
1 37192U 10054E   24308.89528046 -.00000085  00000+0  10376-3 0  9994
2 37192  51.9924 147.5024 0000832  87.5370  19.0935 12.62268620647920
GLOBALSTAR M073         
1 37193U 10054F   24308.63722240 -.00000110  00000+0 -35725-4 0  9995
2 37193  52.0071  61.9312 0000705 123.1424 250.0371 12.62271799649352
GLOBALSTAR M083         
1 37739U 11033A   24308.49197615 -.00000065  00000+0  21719-3 0  9990
2 37739  51.9886  11.4154 0000661 108.2570 264.8440 12.62267283618350
GLOBALSTAR M088         
1 37740U 11033B   24308.42163447 -.00000080  00000+0  13029-3 0  9993
2 37740  51.9735 277.3105 0000624  66.4282 107.7328 12.62264343613885
GLOBALSTAR M091         
1 37741U 11033C   24308.59287826 -.00000055  00000+0  27493-3 0  9992
2 37741  51.9993 239.9424 0000960  72.6961  98.3479 12.62269748614692
GLOBALSTAR M085         
1 37742U 11033D   24308.87625078 -.00000041  00000+0  35300-3 0  9990
2 37742  51.9853 190.3165 0001109  80.3669   0.2551 12.62268797615739
GLOBALSTAR M081         
1 37743U 11033E   24308.44736358 -.00000039  00000+0  36069-3 0  9998
2 37743  51.9948 194.2700 0000983  91.3360  79.5211 12.62262997615336
GLOBALSTAR M089         
1 37744U 11033F   24308.84870530 -.00000068  00000+0  19901-3 0  9992
2 37744  51.9903 147.3198 0000664 100.6878 273.5463 12.62272006616486
